0 THORAD AGENA D DEB
1 17720U 70025PJ  18345.57320937 +.00000552 +00000-0 +37433-3 0  9993
2 17720 099.6492 007.6818 0038665 202.8539 310.4128 14.04533616718913
0 COSMOS 374 DEB *
1 17725U 70089DC  18345.46149601 +.00000146 +00000-0 +75875-4 0  9995
2 17725 062.7344 292.6297 0844767 094.2405 007.0366 13.29038790609208
0 COSMOS 374 DEB *
1 17725U 70089DC  18346.29805542  .00000157  00000-0  78724-4 0  9998
2 17725  62.7344 290.4624 0844759  94.3496  49.5928 13.29039270609300
0 SL-8 DEB
1 17754U 85079C   18346.53381503  .00000183  00000-0  59983-4 0  9993
2 17754  74.0387 154.2314 0016387 190.8522 225.2042 14.44940528743391
0 SL-8 DEB
1 17754U 85079C   18345.49057861 +.00000181 +00000-0 +59450-4 0  9991
2 17754 074.0387 156.1740 0016453 192.8786 198.6868 14.44940060742965
0 SL-3 DEB
1 17755U 82116D   18345.76690278 +.00000021 +00000-0 +44759-5 0  9996
2 17755 081.2540 193.2066 0068138 258.2793 223.2684 14.14254870856963
0 SL-3 DEB
1 17755U 82116D   18346.88692396  .00000000  00000-0 -61058-5 0  9992
2 17755  81.2538 192.1101 0068171 255.0419 165.6976 14.14254896857125
0 DELTA 1 DEB
1 17764U 78026GW  18346.47176899  .00000038  00000-0  45608-4 0  9999
2 17764  98.9566 319.9789 0047679  13.4453 111.2973 14.10888996733101
0 DELTA 1 DEB
1 17764U 78026GW  18345.76184323 +.00000013 +00000-0 +31816-4 0  9990
2 17764 098.9565 319.2712 0047704 015.4227 105.4652 14.10888875733003
0 DELTA 1 DEB
1 17765U 78026GX  18346.84333303  .00000010  00000-0  38645-4 0  9999
2 17765  99.0590  79.7246 0041395 280.9918 204.2131 13.97631746716930
0 COSMOS 1275 DEB
1 17792U 81053LN  18345.19446909 +.00000532 +00000-0 +32895-3 0  9996
2 17792 082.9550 232.0504 0018017 331.5568 191.6711 14.03552376710786
0 COSMOS 1275 DEB
1 17792U 81053LN  18346.18561472  .00000517  00000-0  31927-3 0  9997
2 17792  82.9551 231.2816 0017894 328.8527 159.5269 14.03553507711150
0 COSMOS 1275 DEB
1 17793U 81053LP  18346.24290687  .00000323  00000-0  54293-3 0  9998
2 17793  83.1493 163.2272 0274770  85.3419  36.5870 13.28863796632426
0 COSMOS 1275 DEB
1 17793U 81053LP  18345.94756344 +.00000321 +00000-0 +53923-3 0  9998
2 17793 083.1493 163.4237 0274775 086.1037 063.6942 13.28863601632391
0 COSMOS 1375 DEB
1 17794U 82055AL  18346.64386824  .00000472  00000-0  42676-3 0  9992
2 17794  65.8217  85.3357 0057366 258.7669 216.3488 13.92358374669682
0 COSMOS 1375 DEB
1 17795U 82055AM  18346.47708535 -.00000048  00000-0  38438-4 0  9993
2 17795  65.8354  25.2739 0063023  51.2734  48.6434 13.59729415645387
0 COSMOS 1375 DEB
1 17795U 82055AM  18345.52150793 -.00000042 +00000-0 +46537-4 0  9998
2 17795 065.8355 027.5740 0062973 051.7957 051.0045 13.59729383645043
0 COSMOS 1375 DEB
1 17796U 82055AN  18345.45204771 +.00000288 +00000-0 +23466-3 0  9993
2 17796 065.8226 355.0952 0051918 261.7246 218.7591 14.03824010345707
0 COSMOS 1375 DEB
1 17796U 82055AN  18346.22857824  .00000237  00000-0  20286-3 0  9993
2 17796  65.8227 353.0806 0051884 261.3362 183.1520 14.03824332346122
0 COSMOS 1375 DEB
1 17797U 82055AP  18346.18810885  .00000129  00000-0  18066-3 0  9998
2 17797  65.8294  31.4584 0011874 210.9837 219.2253 13.87204506671085
0 COSMOS 1375 DEB
1 17797U 82055AP  18345.47490396 +.00000139 +00000-0 +18861-3 0  9994
2 17797 065.8295 033.2574 0011939 211.0196 257.8479 13.87204177670763
0 COSMOS 1375 DEB
1 17798U 82055AQ  18345.60134466 -.00000089 +00000-0 -16370-4 0  9993
2 17798 065.8357 067.0066 0066941 055.6610 009.7253 13.59096024644113
0 COSMOS 1375 DEB
1 17799U 82055AR  18345.77959293 +.00000109 +00000-0 +14954-3 0  9991
2 17799 065.8385 114.7409 0026929 335.4153 172.6345 13.92560124677379
0 COSMOS 1375 DEB
1 17800U 82055AS  18345.76897237 -.00000179 +00000-0 -11201-3 0  9993
2 17800 065.8340 257.0365 0037265 325.4166 066.0614 13.70280311656615
0 COSMOS 1375 DEB
1 17800U 82055AS  18346.87240076 -.00000172  00000-0 -10424-3 0  9998
2 17800  65.8340 254.3325 0037343 324.9715 109.1892 13.70280180656770
0 COSMOS 1375 DEB
1 17801U 82055AT  18346.49758438  .00000451  00000-0  25822-3 0  9999
2 17801  65.8338  83.8201 0038565 248.2696 111.4282 14.18739315695076
0 COSMOS 1375 DEB
1 17801U 82055AT  18345.51069019 +.00000532 +00000-0 +29685-3 0  9992
2 17801 065.8337 086.4429 0038566 248.6160 111.0808 14.18738227694673
0 COSMOS 1375 DEB
1 17802U 82055AU  18345.72174667 -.00000045 +00000-0 +36657-4 0  9990
2 17802 065.8349 080.8422 0046303 228.6460 284.4403 13.75762523660427
0 COSMOS 1375 DEB
1 17802U 82055AU  18346.35740111 -.00000057  00000-0  24307-4 0  9995
2 17802  65.8349  79.2698 0046292 228.4384 192.5676 13.75762470660763
0 COSMOS 1375 DEB
1 17803U 82055AV  18345.69206324 +.00000091 +00000-0 +16675-3 0  9990
2 17803 065.8320 226.5667 0038420 158.8020 234.2299 13.79488022665181
0 COSMOS 1375 DEB
1 17803U 82055AV  18346.07848028  .00000090  00000-0  16521-3 0  9995
2 17803  65.8320 225.6048 0038389 158.5784 353.2693 13.79488150665230
0 COSMOS 1375 DEB
1 17804U 82055AW  18346.12824256  .00000334  00000-0  30603-3 0  9997
2 17804  65.8188 211.9303 0017073 190.6174 251.5233 13.95802471673965
0 COSMOS 1375 DEB
1 17804U 82055AW  18345.70276001 +.00000330 +00000-0 +30341-3 0  9994
2 17804 065.8188 213.0194 0017119 190.8682 273.4864 13.95802109673661
0 COSMOS 1375 DEB
1 17805U 82055AX  18345.47776472 +.00000298 +00000-0 +27693-3 0  9995
2 17805 065.8204 163.8828 0018780 219.4205 167.2767 13.96520635674745
0 COSMOS 1375 DEB
1 17805U 82055AX  18346.13868323  .00000297  00000-0  27574-3 0  9993
2 17805  65.8204 162.1890 0018732 219.2235 249.8879 13.96521068675107
0 COSMOS 1375 DEB
1 17807U 82055AZ  18346.18904086  .00000256  00000-0  32730-3 0  9992
2 17807  65.8320  99.9638 0065131 245.2846 189.3295 13.78662702660898
0 COSMOS 1375 DEB
1 17807U 82055AZ  18345.46261670 +.00000245 +00000-0 +31626-3 0  9998
2 17807 065.8319 101.7697 0065120 245.5606 184.0365 13.78662185660769
0 ARIANE 1 DEB
1 17815U 86019ME  18345.96627493 +.00000149 +00000-0 +62766-4 0  9998
2 17815 098.3414 041.3818 0029486 116.1395 008.1187 14.38031347667663
0 ARIANE 1 DEB
1 17815U 86019ME  18346.16263045  .00000147  00000-0  62088-4 0  9995
2 17815  98.3413  41.5725 0029487 115.5770 304.6081 14.38031435668051
0 SL-8 DEB
1 17842U 86030C   18346.71810826  .00000174  00000-0  60210-4 0  9999
2 17842  74.0247 303.6104 0015408  18.9279  46.4342 14.42768653670292
0 SL-8 DEB
1 17842U 86030C   18345.34786571 +.00000177 +00000-0 +61201-4 0  9990
2 17842 074.0246 306.1555 0015326 021.8270 129.4193 14.42768136669821
0 SL-8 DEB
1 17843U 86030D   18345.74555122 +.00000194 +00000-0 +65621-4 0  9990
2 17843 074.0337 306.8179 0014587 345.7637 082.6231 14.43112561708569
0 SL-14 DEB
1 17844U 86101K   18345.65532708 +.00000313 +00000-0 +18210-3 0  9999
2 17844 082.5067 046.5742 0015217 294.8753 223.5613 14.05736182632107
0 SL-14 DEB
1 17844U 86101K   18346.20416225  .00000301  00000-0  17529-3 0  9995
2 17844  82.5066  46.1197 0015244 293.1216 121.1825 14.05736462632381
0 SL-12 R/B(2)
1 17872U 76092F   18345.95575683 -.00000138  00000-0  00000+0 0  9990
2 17872  10.0907 307.5616 0013800 104.9380  91.3461  1.00322066 91418
0 SL-12 R/B(2)
1 17872U 76092F   18345.88404885 -.00000138 +00000-0 +00000-0 0  9998
2 17872 010.0909 307.5625 0013798 104.9370 065.4477 01.00322068091405
0 COSMOS 1842
1 17911U 87038A   18345.90004942 +.00000201 +00000-0 +99057-5 0  9992
2 17911 082.5236 022.6118 0011707 170.3019 189.8440 15.11845909723496
0 COSMOS 1842
1 17911U 87038A   18346.76047094  .00000123  00000-0  53417-5 0  9995
2 17911  82.5234  21.7696 0011759 167.4238 192.7288 15.11846148723929
0 SL-14 R/B
1 17912U 87038B   18346.19490890  .00000083  00000-0  72741-5 0  9995
2 17912  82.5032 260.8574 0018864 240.5110 119.4224 14.82994198708209
0 SL-14 R/B
1 17912U 87038B   18345.72259903 +.00000086 +00000-0 +76535-5 0  9999
2 17912 082.5032 261.3005 0018839 242.1720 117.7585 14.82994147687055
0 SL-12 R/B(2)
1 17939U 79087C   18345.82237444 -.00000309 +00000-0 +00000-0 0  9998
2 17939 011.6466 315.6850 0045132 281.2556 270.6930 01.00470458019867
0 GORIZONT 14
1 17969U 87040A   18345.69064810 -.00000149 +00000-0 +00000-0 0  9991
2 17969 014.9914 342.3062 0024906 143.2395 032.7164 00.97659416093057
0 GORIZONT 14
1 17969U 87040A   18346.74035095 -.00000166  00000-0  00000+0 0  9999
2 17969  14.9903 342.2958 0024893 143.1913  41.8271  0.97659741 93059
0 SL-12 R/B(2)
1 17972U 87040D   18345.65697501 -.00000068 +00000-0 +00000-0 0  9990
2 17972 012.5802 333.9055 0016593 259.6870 103.8237 01.03015920097769
0 COSMOS 1844
1 17973U 87041A   18345.06238439 -.00000366 +00000-0 -16635-3 0  9994
2 17973 070.8974 211.5265 0029692 028.4267 331.8466 14.14080062629546
0 COSMOS 1844
1 17973U 87041A   18346.05271787 -.00000372  00000-0 -16935-3 0  9997
2 17973  70.8972 209.4394 0029743  26.9251 333.3406 14.14079396629882
0 SL-16 R/B
1 17974U 87041B   18346.52365512  .00000164  00000-0  10502-3 0  9991
2 17974  71.0072 205.0790 0016215 281.9322 129.8511 14.17247673633665
0 COSMOS 1850
1 18095U 87049A   18346.23082351  .00000010  00000-0  13057-4 0  9998
2 18095  74.0403  32.6520 0015209 351.0447   9.0430 14.33189805646994
0 COSMOS 1850
1 18095U 87049A   18345.46299770 +.00000019 +00000-0 +16306-4 0  9996
2 18095 074.0404 034.0548 0015180 352.5918 007.5006 14.33189720646626
0 COSMOS 1851
1 18103U 87050A   18345.11020719 -.00000046 +00000-0 +00000-0 0  9996
2 18103 070.8069 283.6663 4895127 119.9388 090.3900 02.00702258230736
0 COSMOS 1851
1 18103U 87050A   18346.12069243 -.00000051  00000-0  00000+0 0  9998
2 18103  70.8071 283.6259 4894581 119.9127 100.4958  2.00703473230819
